{
  "links" : {
    "next" : "https://api.nasa.gov/neo/rest/v1/feed?start_date=2015-02-09&end_date=2015-02-09&detailed=true&api_key=t0TVs3DtDT2H8Oy2Zy8m2eVrNsAVKAexjcZXUckd",
    "prev" : "https://api.nasa.gov/neo/rest/v1/feed?start_date=2015-02-07&end_date=2015-02-07&detailed=true&api_key=t0TVs3DtDT2H8Oy2Zy8m2eVrNsAVKAexjcZXUckd",
    "self" : "https://api.nasa.gov/neo/rest/v1/feed?start_date=2015-02-08&end_date=2015-02-08&detailed=true&api_key=t0TVs3DtDT2H8Oy2Zy8m2eVrNsAVKAexjcZXUckd"
  },
  "element_count" : 9,
  "near_earth_objects" : {
    "2015-02-08" : [ {
      "links" : {
        "self" : "https://api.nasa.gov/neo/rest/v1/neo/3709715?api_key=t0TVs3DtDT2H8Oy2Zy8m2eVrNsAVKAexjcZXUckd"
      },
      "neo_reference_id" : "3709715",
      "name" : "(2015 CL)",
      "nasa_jpl_url" : "http://ssd.jpl.nasa.gov/sbdb.cgi?sstr=3709715",
      "absolute_magnitude_h" : 25.4,
      "estimated_diameter" : {
        "kilometers" : {
          "estimated_diameter_min" : 0.022108281,
          "estimated_diameter_max" : 0.0494356193
        },
        "meters" : {
          "estimated_diameter_min" : 22.1082810359,
          "estimated_diameter_max" : 49.435619262
        },
        "miles" : {
          "estimated_diameter_min" : 0.0137374447,
          "estimated_diameter_max" : 0.0307178602
        },
        "feet" : {
          "estimated_diameter_min" : 72.5337327539,
          "estimated_diameter_max" : 162.1903570994
        }
      },
      "is_potentially_hazardous_asteroid" : false,
      "close_approach_data" : [ {
        "close_approach_date" : "2015-02-08",
        "epoch_date_close_approach" : 1423382400000,
        "relative_velocity" : {
          "kilometers_per_second" : "14.5145673797",
          "kilometers_per_hour" : "52252.442566961",
          "miles_per_hour" : "32467.6357716764"
        },
        "miss_distance" : {
          "astronomical" : "0.0110939869",
          "lunar" : "4.3155608177",
          "kilometers" : "1659636.875",
          "miles" : "1031250.5625"
        },
        "orbiting_body" : "Earth"
      } ],
      "orbital_data" : {
        "orbit_id" : "4",
        "orbit_determination_date" : "2017-04-06 08:35:49",
        "orbit_uncertainty" : "7",
        "minimum_orbit_intersection" : "9.30055E-5",
        "jupiter_tisserand_invariant" : "7.726",
        "epoch_osculation" : "2458000.5",
        "eccentricity" : ".5649318932639468",
        "semi_major_axis" : ".7321056673857965",
        "inclination" : "2.982160035704974",
        "ascending_node_longitude" : "320.1096481393351",
        "orbital_period" : "228.8016121087175",
        "perihelion_distance" : ".3185158266402732",
        "perihelion_argument" : "330.8804044592547",
        "aphelion_distance" : "1.14569550813132",
        "perihelion_time" : "2458043.755673658893",
        "mean_anomaly" : "291.9408531535941",
        "mean_motion" : "1.573415487251646",
        "equinox" : "J2000"
      }
    }, {
      "links" : {
        "self" : "https://api.nasa.gov/neo/rest/v1/neo/3709961?api_key=t0TVs3DtDT2H8Oy2Zy8m2eVrNsAVKAexjcZXUckd"
      },
      "neo_reference_id" : "3709961",
      "name" : "(2015 CB1)",
      "nasa_jpl_url" : "http://ssd.jpl.nasa.gov/sbdb.cgi?sstr=3709961",
      "absolute_magnitude_h" : 25.5,
      "estimated_diameter" : {
        "kilometers" : {
          "estimated_diameter_min" : 0.0211132445,
          "estimated_diameter_max" : 0.0472106499
        },
        "meters" : {
          "estimated_diameter_min" : 21.113244479,
          "estimated_diameter_max" : 47.2106498806
        },
        "miles" : {
          "estimated_diameter_min" : 0.0131191578,
          "estimated_diameter_max" : 0.0293353287
        },
        "feet" : {
          "estimated_diameter_min" : 69.2691770164,
          "estimated_diameter_max" : 154.8905885541
        }
      },
      "is_potentially_hazardous_asteroid" : false,
      "close_approach_data" : [ {
        "close_approach_date" : "2015-02-08",
        "epoch_date_close_approach" : 1423382400000,
        "relative_velocity" : {
          "kilometers_per_second" : "7.9850511343",
          "kilometers_per_hour" : "28746.1840833639",
          "miles_per_hour" : "17861.7608822435"
        },
        "miss_distance" : {
          "astronomical" : "0.0225407966",
          "lunar" : "8.7683696747",
          "kilometers" : "3372055.25",
          "miles" : "2095298"
        },
        "orbiting_body" : "Earth"
      } ],
      "orbital_data" : {
        "orbit_id" : "3",
        "orbit_determination_date" : "2017-04-06 08:35:47",
        "orbit_uncertainty" : "7",
        "minimum_orbit_intersection" : ".023429",
        "jupiter_tisserand_invariant" : "4.469",
        "epoch_osculation" : "2458000.5",
        "eccentricity" : ".3307482997671188",
        "semi_major_axis" : "1.496258220167299",
        "inclination" : "11.64376022164764",
        "ascending_node_longitude" : "137.6363925155273",
        "orbital_period" : "668.5105276745645",
        "perihelion_distance" : "1.00137335783439",
        "perihelion_argument" : "14.52609210765782",
        "aphelion_distance" : "1.991143082500209",
        "perihelion_time" : "2457741.736180381702",
        "mean_anomaly" : "139.3470576845365",
        "mean_motion" : ".5385105919756741",
        "equinox" : "J2000"
      }
    }, {
      "links" : {
        "self" : "https://api.nasa.gov/neo/rest/v1/neo/2468910?api_key=t0TVs3DtDT2H8Oy2Zy8m2eVrNsAVKAexjcZXUckd"
      },
      "neo_reference_id" : "2468910",
      "name" : "468910 (2014 KQ76)",
      "nasa_jpl_url" : "http://ssd.jpl.nasa.gov/sbdb.cgi?sstr=2468910",
      "absolute_magnitude_h" : 21.5,
      "estimated_diameter" : {
        "kilometers" : {
          "estimated_diameter_min" : 0.1332155667,
          "estimated_diameter_max" : 0.2978790628
        },
        "meters" : {
          "estimated_diameter_min" : 133.2155666981,
          "estimated_diameter_max" : 297.8790627982
        },
        "miles" : {
          "estimated_diameter_min" : 0.0827762899,
          "estimated_diameter_max" : 0.1850934111
        },
        "feet" : {
          "estimated_diameter_min" : 437.0589598459,
          "estimated_diameter_max" : 977.2935443908
        }
      },
      "is_potentially_hazardous_asteroid" : true,
      "close_approach_data" : [ {
        "close_approach_date" : "2015-02-08",
        "epoch_date_close_approach" : 1423382400000,
        "relative_velocity" : {
          "kilometers_per_second" : "12.747290977",
          "kilometers_per_hour" : "45890.2475172497",
          "miles_per_hour" : "28514.4151864822"
        },
        "miss_distance" : {
          "astronomical" : "0.3465854886",
          "lunar" : "134.8217468262",
          "kilometers" : "51848452",
          "miles" : "32217134"
        },
        "orbiting_body" : "Earth"
      } ],
      "orbital_data" : {
        "orbit_id" : "28",
        "orbit_determination_date" : "2017-05-23 06:19:48",
        "orbit_uncertainty" : "1",
        "minimum_orbit_intersection" : ".0409294",
        "jupiter_tisserand_invariant" : "5.959",
        "epoch_osculation" : "2458000.5",
        "eccentricity" : ".4233477017426433",
        "semi_major_axis" : "1.007452536157145",
        "inclination" : "4.774411821602036",
        "ascending_node_longitude" : "128.0258111147024",
        "orbital_period" : "369.3476316941474",
        "perihelion_distance" : ".5809498203602207",
        "perihelion_argument" : "324.7389768674062",
        "aphelion_distance" : "1.43395525195407",
        "perihelion_time" : "2458146.754300941429",
        "mean_anomaly" : "217.4471749083402",
        "mean_motion" : ".974691507696229",
        "equinox" : "J2000"
      }
    } ]
  }
}